{"type": "FeatureCollection", "features": [ {"type": "Feature", "properties": {"norad_id": 66727, "name": "FLOCK 4H-24", "group": "last-30-days", "lat": 82.31178728266043, "lon": -32.93570281517785, "alt_km": 508.1542226171141, "timestamp": "2025-12-25T22:42:15.708376+00:00", "meta": {"OBJECT_NAME": "FLOCK 4H-24", "OBJECT_ID": "2025-276BP", "EPOCH": "2025-12-25T17:33:09.199872", "MEAN_MOTION": 15.1736122, "ECCENTRICITY": 0.0002884, "INCLINATION": 97.4435, "RA_OF_ASC_NODE": 71.2778, "ARG_OF_PERICENTER": 247.8142, "MEAN_ANOMALY": 112.2785, "EPHEMERIS_TYPE": 0, "CLASSIFICATION_TYPE": "U", "NORAD_CAT_ID": 66727, "ELEMENT_SET_NO": 999, "REV_AT_EPOCH": 409, "BSTAR": 0.00030268, "MEAN_MOTION_DOT": 5.977e-05, "MEAN_MOTION_DDOT": 0}, "tle": {"line1": "1 66727U 25276BP  25359.73135648  .00005977  00000+0  30268-3 0  9990", "line2": "2 66727  97.4435  71.2778 0002884 247.8142 112.2785 15.17361220  4091"}}, "geometry": {"type": "Point", "coordinates": [-32.93570281517785, 82.31178728266043]}}, {"type": "Feature", "properties": {"norad_id": 66728, "name": "FLOCK 4H-25", "group": "last-30-days", "lat": 1.161261307015848, "lon": -108.34107279556433, "alt_km": 513.5434024509223, "timestamp": "2025-12-25T22:42:15.708388+00:00", "meta": {"OBJECT_NAME": "FLOCK 4H-25", "OBJECT_ID": "2025-276BQ", "EPOCH": "2025-12-25T17:10:28.320384", "MEAN_MOTION": 15.18247547, "ECCENTRICITY": 0.0001753, "INCLINATION": 97.4392, "RA_OF_ASC_NODE": 71.2806, "ARG_OF_PERICENTER": 114.9526, "MEAN_ANOMALY": 245.189, "EPHEMERIS_TYPE": 0, "CLASSIFICATION_TYPE": "U", "NORAD_CAT_ID": 66728, "ELEMENT_SET_NO": 999, "REV_AT_EPOCH": 337, "BSTAR": 0.00028641, "MEAN_MOTION_DOT": 5.798e-05, "MEAN_MOTION_DDOT": 0}, "tle": {"line1": "1 66728U 25276BQ  25359.71560556  .00005798  00000+0  28641-3 0  9992", "line2": "2 66728  97.4392  71.2806 0001753 114.9526 245.1890 15.18247547  3379"}}, "geometry": {"type": "Point", "coordinates": [-108.34107279556433, 1.161261307015848]}}, {"type": "Feature", "properties": {"norad_id": 66729, "name": "FLOCK 4H-26", "group": "last-30-days", "lat": 71.13633204024632, "lon": 48.97832529283862, "alt_km": 510.00822329058883, "timestamp": "2025-12-25T22:42:15.708398+00:00", "meta": {"OBJECT_NAME": "FLOCK 4H-26", "OBJECT_ID": "2025-276BR", "EPOCH": "2025-12-25T14:28:15.064032", "MEAN_MOTION": 15.17182761, "ECCENTRICITY": 0.0003669, "INCLINATION": 97.4388, "RA_OF_ASC_NODE": 71.1245, "ARG_OF_PERICENTER": 247.2854, "MEAN_ANOMALY": 112.7992, "EPHEMERIS_TYPE": 0, "CLASSIFICATION_TYPE": "U", "NORAD_CAT_ID": 66729, "ELEMENT_SET_NO": 999, "REV_AT_EPOCH": 407, "BSTAR": 0.00035367, "MEAN_MOTION_DOT": 6.961e-05, "MEAN_MOTION_DDOT": 0}, "tle": {"line1": "1 66729U 25276BR  25359.60295213  .00006961  00000+0  35367-3 0  9992", "line2": "2 66729  97.4388  71.1245 0003669 247.2854 112.7992 15.17182761  4078"}}, "geometry": {"type": "Point", "coordinates": [48.97832529283862, 71.13633204024632]}}, {"type": "Feature", "properties": {"norad_id": 66730, "name": "FLOCK 4H-27", "group": "last-30-days", "lat": 14.161251240848761, "lon": -106.61859697261191, "alt_km": 511.85180857995147, "timestamp": "2025-12-25T22:42:15.708408+00:00", "meta": {"OBJECT_NAME": "FLOCK 4H-27", "OBJECT_ID": "2025-276BS", "EPOCH": "2025-12-25T17:13:53.798592", "MEAN_MOTION": 15.18121713, "ECCENTRICITY": 0.0001367, "INCLINATION": 97.4367, "RA_OF_ASC_NODE": 71.2686, "ARG_OF_PERICENTER": 125.9814, "MEAN_ANOMALY": 234.1547, "EPHEMERIS_TYPE": 0, "CLASSIFICATION_TYPE": "U", "NORAD_CAT_ID": 66730, "ELEMENT_SET_NO": 999, "REV_AT_EPOCH": 409, "BSTAR": 0.00048555, "MEAN_MOTION_DOT": 9.846e-05, "MEAN_MOTION_DDOT": 0}, "tle": {"line1": "1 66730U 25276BS  25359.71798378  .00009846  00000+0  48555-3 0  9994", "line2": "2 66730  97.4367  71.2686 0001367 125.9814 234.1547 15.18121713  4096"}}, "geometry": {"type": "Point", "coordinates": [-106.61859697261191, 14.161251240848761]}}, {"type": "Feature", "properties": {"norad_id": 66731, "name": "FLOCK 4H-28", "group": "last-30-days", "lat": 72.57540516173363, "lon": 46.860562168963206, "alt_km": 509.6477362873784, "timestamp": "2025-12-25T22:42:15.708418+00:00", "meta": {"OBJECT_NAME": "FLOCK 4H-28", "OBJECT_ID": "2025-276BT", "EPOCH": "2025-12-25T14:27:49.974336", "MEAN_MOTION": 15.171733, "ECCENTRICITY": 0.0003263, "INCLINATION": 97.4376, "RA_OF_ASC_NODE": 71.1205, "ARG_OF_PERICENTER": 249.1184, "MEAN_ANOMALY": 110.9701, "EPHEMERIS_TYPE": 0, "CLASSIFICATION_TYPE": "U", "NORAD_CAT_ID": 66731, "ELEMENT_SET_NO": 999, "REV_AT_EPOCH": 407, "BSTAR": 0.00051679, "MEAN_MOTION_DOT": 0.00010203, "MEAN_MOTION_DDOT": 0}, "tle": {"line1": "1 66731U 25276BT  25359.60266174  .00010203  00000+0  51679-3 0  9997", "line2": "2 66731  97.4376  71.1205 0003263 249.1184 110.9701 15.17173300  4078"}}, "geometry": {"type": "Point", "coordinates": [46.860562168963206, 72.57540516173363]}}, {"type": "Feature", "properties": {"norad_id": 66732, "name": "FLOCK 4H-29", "group": "last-30-days", "lat": 82.29072736389767, "lon": -3.321374099188936, "alt_km": 507.7920134418564, "timestamp": "2025-12-25T22:42:15.708428+00:00", "meta": {"OBJECT_NAME": "FLOCK 4H-29", "OBJECT_ID": "2025-276BU", "EPOCH": "2025-12-25T16:00:01.998720", "MEAN_MOTION": 15.17296277, "ECCENTRICITY": 0.0001938, "INCLINATION": 97.4368, "RA_OF_ASC_NODE": 71.1834, "ARG_OF_PERICENTER": 259.3991, "MEAN_ANOMALY": 103.798, "EPHEMERIS_TYPE": 0, "CLASSIFICATION_TYPE": "U", "NORAD_CAT_ID": 66732, "ELEMENT_SET_NO": 999, "REV_AT_EPOCH": 350, "BSTAR": 0.0025858, "MEAN_MOTION_DOT": 0.00051787, "MEAN_MOTION_DDOT": 0}, "tle": {"line1": "1 66732U 25276BU  25359.66668980  .00051787  00000+0  25858-2 0  9996", "line2": "2 66732  97.4368  71.1834 0001938 259.3991 103.7980 15.17296277  3509"}}, "geometry": {"type": "Point", "coordinates": [-3.321374099188936, 82.29072736389767]}}, {"type": "Feature", "properties": {"norad_id": 66733, "name": "FLOCK 4H-30", "group": "last-30-days", "lat": 78.67460469322396, "lon": 30.731173980507712, "alt_km": 508.8257397535135, "timestamp": "2025-12-25T22:42:15.708438+00:00", "meta": {"OBJECT_NAME": "FLOCK 4H-30", "OBJECT_ID": "2025-276BV", "EPOCH": "2025-12-25T18:00:02.000160", "MEAN_MOTION": 15.17307309, "ECCENTRICITY": 0.0003225, "INCLINATION": 97.4431, "RA_OF_ASC_NODE": 71.2879, "ARG_OF_PERICENTER": 246.5064, "MEAN_ANOMALY": 205.08, "EPHEMERIS_TYPE": 0, "CLASSIFICATION_TYPE": "U", "NORAD_CAT_ID": 66733, "ELEMENT_SET_NO": 999, "REV_AT_EPOCH": 352, "BSTAR": -0.00086562, "MEAN_MOTION_DOT": -0.00017268, "MEAN_MOTION_DDOT": 0}, "tle": {"line1": "1 66733U 25276BV  25359.75002315 -.00017268  00000+0 -86562-3 0  9999", "line2": "2 66733  97.4431  71.2879 0003225 246.5064 205.0800 15.17307309  3529"}}, "geometry": {"type": "Point", "coordinates": [30.731173980507712, 78.67460469322396]}}, {"type": "Feature", "properties": {"norad_id": 66734, "name": "FLOCK 4H-31", "group": "last-30-days", "lat": 78.82851179281488, "lon": 30.050199794029783, "alt_km": 508.5796306426537, "timestamp": "2025-12-25T22:42:15.708448+00:00", "meta": {"OBJECT_NAME": "FLOCK 4H-31", "OBJECT_ID": "2025-276BW", "EPOCH": "2025-12-25T16:00:51.904224", "MEAN_MOTION": 15.17235768, "ECCENTRICITY": 0.0002485, "INCLINATION": 97.4365, "RA_OF_ASC_NODE": 71.1823, "ARG_OF_PERICENTER": 262.1041, "MEAN_ANOMALY": 97.991, "EPHEMERIS_TYPE": 0, "CLASSIFICATION_TYPE": "U", "NORAD_CAT_ID": 66734, "ELEMENT_SET_NO": 999, "REV_AT_EPOCH": 408, "BSTAR": 0.00025889, "MEAN_MOTION_DOT": 5.084e-05, "MEAN_MOTION_DDOT": 0}, "tle": {"line1": "1 66734U 25276BW  25359.66726741  .00005084  00000+0  25889-3 0  9992", "line2": "2 66734  97.4365  71.1823 0002485 262.1041  97.9910 15.17235768  4081"}}, "geometry": {"type": "Point", "coordinates": [30.050199794029783, 78.82851179281488]}}, {"type": "Feature", "properties": {"norad_id": 66735, "name": "FLOCK 4H-32", "group": "last-30-days", "lat": 77.20376965130633, "lon": 36.33956348573163, "alt_km": 509.2265869999437, "timestamp": "2025-12-25T22:42:15.708457+00:00", "meta": {"OBJECT_NAME": "FLOCK 4H-32", "OBJECT_ID": "2025-276BX", "EPOCH": "2025-12-25T16:01:24.883968", "MEAN_MOTION": 15.1726209, "ECCENTRICITY": 0.0003553, "INCLINATION": 97.4423, "RA_OF_ASC_NODE": 71.2034, "ARG_OF_PERICENTER": 245.2939, "MEAN_ANOMALY": 114.7925, "EPHEMERIS_TYPE": 0, "CLASSIFICATION_TYPE": "U", "NORAD_CAT_ID": 66735, "ELEMENT_SET_NO": 999, "REV_AT_EPOCH": 408, "BSTAR": 0.00038403, "MEAN_MOTION_DOT": 7.582e-05, "MEAN_MOTION_DDOT": 0}, "tle": {"line1": "1 66735U 25276BX  25359.66764912  .00007582  00000+0  38403-3 0  9996", "line2": "2 66735  97.4423  71.2034 0003553 245.2939 114.7925 15.17262090  4089"}}, "geometry": {"type": "Point", "coordinates": [36.33956348573163, 77.20376965130633]}}, {"type": "Feature", "properties": {"norad_id": 66736, "name": "FLOCK 4H-33", "group": "last-30-days", "lat": -2.3062737270112947, "lon": -108.78202189605993, "alt_km": 512.5966731424687, "timestamp": "2025-12-25T22:42:15.708471+00:00", "meta": {"OBJECT_NAME": "FLOCK 4H-33", "OBJECT_ID": "2025-276BY", "EPOCH": "2025-12-25T17:09:34.106112", "MEAN_MOTION": 15.18334704, "ECCENTRICITY": 0.000279, "INCLINATION": 97.442, "RA_OF_ASC_NODE": 71.2923, "ARG_OF_PERICENTER": 151.7464, "MEAN_ANOMALY": 208.3922, "EPHEMERIS_TYPE": 0, "CLASSIFICATION_TYPE": "U", "NORAD_CAT_ID": 66736, "ELEMENT_SET_NO": 999, "REV_AT_EPOCH": 409, "BSTAR": 0.00053563, "MEAN_MOTION_DOT": 0.00010937, "MEAN_MOTION_DDOT": 0}, "tle": {"line1": "1 66736U 25276BY  25359.71497808  .00010937  00000+0  53563-3 0  9992", "line2": "2 66736  97.4420  71.2923 0002790 151.7464 208.3922 15.18334704  4091"}}, "geometry": {"type": "Point", "coordinates": [-108.78202189605993, -2.3062737270112947]}}]}